{
  "norad_id": 63249,
  "name": "EZIE-C",
  "history": [
    {
      "epoch": "2026-04-11T16:01:36.180768Z",
      "apogee_km": 580.3409228341143,
      "perigee_km": 573.4888057374192,
      "latitude_deg": 2.7123259314142436e-05,
      "longitude_deg": -85.47412901027664,
      "height_km": 579.3415735836099,
      "semi_major_axis_km": 6955.051864285766,
      "eccentricity": 0.0004926,
      "inclination_deg": 97.6958,
      "raan_deg": 354.8106,
      "arg_perigee_deg": 79.6642,
      "mean_anomaly_deg": 280.5135,
      "mean_motion_rev_day": 14.96760118
    },
    {
      "epoch": "2026-04-12T16:05:36.876480Z",
      "apogee_km": 580.2612613437886,
      "perigee_km": 573.5404691538415,
      "latitude_deg": 3.3087010273241047e-06,
      "longitude_deg": -86.47901628480885,
      "height_km": 579.2166075692202,
      "semi_major_axis_km": 6955.037865248815,
      "eccentricity": 0.00048316,
      "inclination_deg": 97.6957,
      "raan_deg": 355.797,
      "arg_perigee_deg": 77.5244,
      "mean_anomaly_deg": 282.6518,
      "mean_motion_rev_day": 14.96764637
    },
    {
      "epoch": "2026-04-14T14:37:21.491328Z",
      "apogee_km": 580.1216000844734,
      "perigee_km": 573.6297912343443,
      "latitude_deg": -3.362048210090196e-05,
      "longitude_deg": -64.41828576242565,
      "height_km": 578.9040054481902,
      "semi_major_axis_km": 6955.012695659409,
      "eccentricity": 0.0004667,
      "inclination_deg": 97.6953,
      "raan_deg": 357.7045,
      "arg_perigee_deg": 71.7978,
      "mean_anomaly_deg": 288.3751,
      "mean_motion_rev_day": 14.96772762
    },
    {
      "epoch": "2026-04-15T14:41:21.516576Z",
      "apogee_km": 580.0516112472251,
      "perigee_km": 573.6738764821012,
      "latitude_deg": 1.8109560796420686e-05,
      "longitude_deg": -65.42017926655112,
      "height_km": 578.7790943725103,
      "semi_major_axis_km": 6954.999743864663,
      "eccentricity": 0.0004585,
      "inclination_deg": 97.6948,
      "raan_deg": 358.6911,
      "arg_perigee_deg": 69.3194,
      "mean_anomaly_deg": 290.8519,
      "mean_motion_rev_day": 14.96776943
    },
    {
      "epoch": "2026-04-16T14:45:21.331872Z",
      "apogee_km": 580.0068592188081,
      "perigee_km": 573.6861702006399,
      "latitude_deg": -6.928061190181345e-05,
      "longitude_deg": -66.42127675717674,
      "height_km": 578.6853171460947,
      "semi_major_axis_km": 6954.983514709724,
      "eccentricity": 0.0004544,
      "inclination_deg": 97.6943,
      "raan_deg": 359.6776,
      "arg_perigee_deg": 67.6076,
      "mean_anomaly_deg": 292.5626,
      "mean_motion_rev_day": 14.96782182
    },
    {
      "epoch": "2026-04-17T22:50:40.734240Z",
      "apogee_km": 579.8720221028625,
      "perigee_km": 573.7778062751731,
      "latitude_deg": 3.434151801464282e-05,
      "longitude_deg": 172.2451309282734,
      "height_km": 578.5348068894896,
      "semi_major_axis_km": 6954.961914189017,
      "eccentricity": 0.00043812,
      "inclination_deg": 97.6938,
      "raan_deg": 0.9927,
      "arg_perigee_deg": 64.0505,
      "mean_anomaly_deg": 296.1168,
      "mean_motion_rev_day": 14.96789155
    },
    {
      "epoch": "2026-04-18T14:53:20.150304Z",
      "apogee_km": 579.8331795774211,
      "perigee_km": 573.7879391588194,
      "latitude_deg": 5.552467320730129e-06,
      "longitude_deg": -68.4205140111661,
      "height_km": 578.4698358573961,
      "semi_major_axis_km": 6954.94755936812,
      "eccentricity": 0.0004346,
      "inclination_deg": 97.6935,
      "raan_deg": 1.6502,
      "arg_perigee_deg": 62.7468,
      "mean_anomaly_deg": 297.4196,
      "mean_motion_rev_day": 14.96793789
    },
    {
      "epoch": "2026-04-19T10:08:31.196256Z",
      "apogee_km": 579.7867304300953,
      "perigee_km": 573.7963113964634,
      "latitude_deg": 7.037409801296123e-05,
      "longitude_deg": 2.781756525929247,
      "height_km": 578.3991559048326,
      "semi_major_axis_km": 6954.9285209132795,
      "eccentricity": 0.00043066,
      "inclination_deg": 97.6932,
      "raan_deg": 2.4392,
      "arg_perigee_deg": 61.3531,
      "mean_anomaly_deg": 298.8124,
      "mean_motion_rev_day": 14.96799935
    },
    {
      "epoch": "2026-04-20T10:12:29.667168Z",
      "apogee_km": 579.7409962201455,
      "perigee_km": 573.8092907512091,
      "latitude_deg": 6.527012467255044e-05,
      "longitude_deg": 1.785961309735289,
      "height_km": 578.3250826624833,
      "semi_major_axis_km": 6954.912143485677,
      "eccentricity": 0.00042644,
      "inclination_deg": 97.6928,
      "raan_deg": 3.4254,
      "arg_perigee_deg": 59.7565,
      "mean_anomaly_deg": 300.4079,
      "mean_motion_rev_day": 14.96805222
    },
    {
      "epoch": "2026-04-21T15:05:15.024768Z",
      "apogee_km": 579.6877338305958,
      "perigee_km": 573.7872183250911,
      "latitude_deg": -2.7810468863710714e-05,
      "longitude_deg": -71.40574841378312,
      "height_km": 578.2167293606444,
      "semi_major_axis_km": 6954.874476077843,
      "eccentricity": 0.0004242,
      "inclination_deg": 97.6923,
      "raan_deg": 4.6087,
      "arg_perigee_deg": 57.9697,
      "mean_anomaly_deg": 302.1936,
      "mean_motion_rev_day": 14.96817382
    },
    {
      "epoch": "2026-04-22T05:31:37.471584Z",
      "apogee_km": 579.6698735404461,
      "perigee_km": 573.7757689391419,
      "latitude_deg": -3.755126237925968e-05,
      "longitude_deg": 71.9994109537823,
      "height_km": 578.1708674650963,
      "semi_major_axis_km": 6954.859821239794,
      "eccentricity": 0.00042374,
      "inclination_deg": 97.6923,
      "raan_deg": 5.2004,
      "arg_perigee_deg": 57.2103,
      "mean_anomaly_deg": 302.9526,
      "mean_motion_rev_day": 14.96822113
    },
    {
      "epoch": "2026-04-22T23:10:31.341792Z",
      "apogee_km": 579.6592037959017,
      "perigee_km": 573.7503702136619,
      "latitude_deg": -3.4457681703806244e-05,
      "longitude_deg": 167.27325973638156,
      "height_km": 578.1114242413853,
      "semi_major_axis_km": 6954.8417870047815,
      "eccentricity": 0.0004248,
      "inclination_deg": 97.6923,
      "raan_deg": 5.9235,
      "arg_perigee_deg": 56.3416,
      "mean_anomaly_deg": 303.821,
      "mean_motion_rev_day": 14.96827935
    },
    {
      "epoch": "2026-04-24T16:53:21.300000Z",
      "apogee_km": 579.6074343008077,
      "perigee_km": 573.7111580009314,
      "latitude_deg": -2.1833078472379862e-05,
      "longitude_deg": -98.43883172063701,
      "height_km": 577.9467423799616,
      "semi_major_axis_km": 6954.796296150869,
      "eccentricity": 0.0004239,
      "inclination_deg": 97.6926,
      "raan_deg": 7.6327,
      "arg_perigee_deg": 53.4209,
      "mean_anomaly_deg": 306.7402,
      "mean_motion_rev_day": 14.96842621
    },
    {
      "epoch": "2026-04-25T16:57:17.028576Z",
      "apogee_km": 579.5630500825409,
      "perigee_km": 573.6793246560264,
      "latitude_deg": -3.3918201879540526e-05,
      "longitude_deg": -99.42306695617212,
      "height_km": 577.8486067233954,
      "semi_major_axis_km": 6954.758187369283,
      "eccentricity": 0.000423,
      "inclination_deg": 97.6929,
      "raan_deg": 8.619,
      "arg_perigee_deg": 51.8547,
      "mean_anomaly_deg": 308.3055,
      "mean_motion_rev_day": 14.96854924
    }
  ]
}